[{"OBJECT_NAME":"LEMUR-2-ALISIA","OBJECT_ID":"2025-009DB","EPOCH":"2026-03-09T17:42:17.671392","MEAN_MOTION":15.01147598,"ECCENTRICITY":0.00065821,"INCLINATION":97.7037,"RA_OF_ASC_NODE":151.6973,"ARG_OF_PERICENTER":159.9869,"MEAN_ANOMALY":200.1615,"EPHEMERIS_TYPE":0,"CLASSIFICATION_TYPE":"U","NORAD_CAT_ID":62706,"ELEMENT_SET_NO":999,"REV_AT_EPOCH":8523,"BSTAR":0.00072005311,"MEAN_MOTION_DOT":9.177e-5,"MEAN_MOTION_DDOT":0},{"OBJECT_NAME":"STARLINK-35837","OBJECT_ID":"2025-280V","EPOCH":"2026-03-09T21:21:22.331520","MEAN_MOTION":14.983313,"ECCENTRICITY":0.00029338,"INCLINATION":70.0022,"RA_OF_ASC_NODE":334.0388,"ARG_OF_PERICENTER":271.456,"MEAN_ANOMALY":88.6263,"EPHEMERIS_TYPE":0,"CLASSIFICATION_TYPE":"U","NORAD_CAT_ID":66840,"ELEMENT_SET_NO":999,"REV_AT_EPOCH":1610,"BSTAR":0.00041961122,"MEAN_MOTION_DOT":4.917e-5,"MEAN_MOTION_DDOT":0}]
